NORAD_CAT_ID,OBJECT_NAME,OBJECT_TYPE,EPOCH,MEAN_MOTION,ECCENTRICITY,INCLINATION,RA_OF_ASC_NODE,ARG_OF_PERICENTER,MEAN_ANOMALY,BSTAR,MEAN_MOTION_DOT,MEAN_MOTION_DDOT,TLE_LINE0,TLE_LINE1,TLE_LINE2,SEMIMAJOR_AXIS,PERIOD,APOGEE,PERIGEE,DECAYED
52554.0,STARLINK-3770,PAYLOAD,2024-02-12 20:12:57,15.08838109,0.0001358,53.215,287.2518,77.9778,282.1366,2.0716e-05,4.2e-07,0.0,0 STARLINK-3770,1 52554U 22051X   24043.84233372  .00000042  00000-0  20716-4 0  9992,2 52554  53.2150 287.2518 0001358  77.9778 282.1366 15.08838109 97337,6917.886,95.438,540.691,538.812,0.0
52554.0,STARLINK-3770,PAYLOAD,2024-02-12 21:48:20,15.08837495,0.0001387,53.2153,286.9542,80.7906,279.3243,3.3766e-05,2.49e-06,0.0,0 STARLINK-3770,1 52554U 22051X   24043.90857446  .00000249  00000-0  33766-4 0  9991,2 52554  53.2153 286.9542 0001387  80.7906 279.3243 15.08837495 97272,6917.888,95.438,540.713,538.794,0.0
52554.0,STARLINK-3770,PAYLOAD,2024-02-13 08:56:02,15.08841548,0.0001458,53.2159,284.8732,90.2817,269.8342,9.1103e-05,1.162e-05,0.0,0 STARLINK-3770,1 52554U 22051X   24044.37225290  .00001162  00000-0  91103-4 0  9993,2 52554  53.2159 284.8732 0001458  90.2817 269.8342 15.08841548 97348,6917.876,95.437,540.749,538.732,0.0
52554.0,STARLINK-3770,PAYLOAD,2024-02-13 20:03:43,15.08857068,7.49e-05,53.2135,282.7894,89.5388,270.569,0.00017545,2.507e-05,0.0,0 STARLINK-3770,1 52554U 22051X   24044.83592029  .00002507  00000-0  17545-3 0  9992,2 52554  53.2135 282.7894 0000749  89.5388 270.5690 15.08857068 97488,6917.828,95.436,540.211,539.175,0.0
52554.0,STARLINK-3770,PAYLOAD,2024-02-13 21:39:06,15.08850201,5.46e-05,53.2142,282.4956,128.9129,231.1912,0.00013622,1.882e-05,0.0,0 STARLINK-3770,1 52554U 22051X   24044.90216252  .00001882  00000-0  13622-3 0  9998,2 52554  53.2142 282.4956 0000546 128.9129 231.1912 15.08850201 97424,6917.849,95.437,540.092,539.336,0.0
52554.0,STARLINK-3770,PAYLOAD,2024-02-14 00:49:53,15.0883276,0.0001373,53.2155,281.9015,91.1565,268.9585,-0.00018125,-3.171e-05,0.0,0 STARLINK-3770,1 52554U 22051X   24045.03465271 -.00003171  00000-0 -18125-3 0  9998,2 52554  53.2155 281.9015 0001373  91.1565 268.9585 15.08832760 97516,6917.903,95.438,540.717,538.818,0.0
52554.0,STARLINK-3770,PAYLOAD,2024-02-14 08:46:49,15.08836531,0.000137,53.2156,280.4144,88.4219,271.693,-0.00010529,-1.963e-05,0.0,0 STARLINK-3770,1 52554U 22051X   24045.36585188 -.00001963  00000-0 -10529-3 0  9991,2 52554  53.2156 280.4144 0001370  88.4219 271.6930 15.08836531 97498,6917.891,95.438,540.704,538.808,0.0
52554.0,STARLINK-3770,PAYLOAD,2024-02-14 21:29:54,15.08843109,0.0001465,53.2151,278.0347,88.8257,271.2902,0.00018131,2.599e-05,0.0,0 STARLINK-3770,1 52554U 22051X   24045.89577131  .00002599  00000-0  18131-3 0  9999,2 52554  53.2151 278.0347 0001465  88.8257 271.2902 15.08843109 97575,6917.871,95.437,540.749,538.722,0.0
52554.0,STARLINK-3770,PAYLOAD,2024-02-15 00:40:40,15.08850278,0.000148,53.2154,277.4398,86.0055,274.1107,0.00038447,5.838e-05,0.0,0 STARLINK-3770,1 52554U 22051X   24046.02824942  .00005838  00000-0  38447-3 0  9991,2 52554  53.2154 277.4398 0001480  86.0055 274.1107 15.08850278 97664,6917.849,95.437,540.738,538.69,0.0
52554.0,STARLINK-3770,PAYLOAD,2024-02-15 14:59:09,15.08835546,0.0001163,53.2157,274.7646,93.9653,266.1472,0.00019392,2.799e-05,0.0,0 STARLINK-3770,1 52554U 22051X   24046.62441570  .00002799  00000-0  19392-3 0  9990,2 52554  53.2157 274.7646 0001163  93.9653 266.1472 15.08835546 97681,6917.894,95.438,540.564,538.954,0.0
52554.0,STARLINK-3770,PAYLOAD,2024-02-15 19:45:18,15.08840214,0.0001742,53.2156,273.8712,106.7274,253.3909,0.00026843,3.987e-05,0.0,0 STARLINK-3770,1 52554U 22051X   24046.82313538  .00003987  00000-0  26843-3 0  9993,2 52554  53.2156 273.8712 0001742 106.7274 253.3909 15.08840214 97781,6917.88,95.438,540.95,538.54,0.0
52554.0,STARLINK-3770,PAYLOAD,2024-02-15 21:20:42,15.08841012,0.0001753,53.2155,273.5736,100.7454,259.3736,0.00032993,4.967e-05,0.0,0 STARLINK-3770,1 52554U 22051X   24046.88937608  .00004967  00000-0  32993-3 0  9991,2 52554  53.2155 273.5736 0001753 100.7454 259.3736 15.08841012 97724,6917.877,95.437,540.955,538.53,0.0
52554.0,STARLINK-3770,PAYLOAD,2024-02-16 08:28:24,15.08823434,0.0001827,53.2161,271.4918,92.7473,267.3728,-4.6896e-05,-1.034e-05,0.0,0 STARLINK-3770,1 52554U 22051X   24047.35306664 -.00001034  00000-0 -46896-4 0  9998,2 52554  53.2161 271.4918 0001827  92.7473 267.3728 15.08823434 97866,6917.931,95.439,541.06,538.532,0.0
52554.0,STARLINK-3770,PAYLOAD,2024-02-16 21:11:30,15.0881865,0.0001761,53.2164,269.1156,78.3462,281.7727,0.00014916,2.085e-05,0.0,0 STARLINK-3770,1 52554U 22051X   24047.88299529  .00002085  00000-0  14916-3 0  9999,2 52554  53.2164 269.1156 0001761  78.3462 281.7727 15.08818650 97876,6917.946,95.439,541.029,538.592,0.0
52554.0,STARLINK-3770,PAYLOAD,2024-02-17 00:22:17,15.08821106,0.0001703,53.2166,268.519,84.3702,275.7485,0.00027594,4.104e-05,0.0,0 STARLINK-3770,1 52554U 22051X   24048.01547649  .00004104  00000-0  27594-3 0  9994,2 52554  53.2166 268.5190 0001703  84.3702 275.7485 15.08821106 97895,6917.938,95.439,540.981,538.625,0.0
52554.0,STARLINK-3770,PAYLOAD,2024-02-17 19:26:54,15.08849814,0.0001458,53.2167,264.9509,90.1434,269.9725,0.00086854,0.00013566,0.0,0 STARLINK-3770,1 52554U 22051X   24048.81035453  .00013566  00000-0  86854-3 0  9993,2 52554  53.2167 264.9509 0001458  90.1434 269.9725 15.08849814 98084,6917.85,95.437,540.724,538.707,0.0
52554.0,STARLINK-3770,PAYLOAD,2024-02-17 21:02:17,15.08855155,0.0001394,53.2168,264.6536,88.7279,271.3873,0.00098911,0.00015495,0.0,0 STARLINK-3770,1 52554U 22051X   24048.87659359  .00015495  00000-0  98911-3 0  9996,2 52554  53.2168 264.6536 0001394  88.7279 271.3873 15.08855155 98021,6917.834,95.437,540.663,538.735,0.0
52554.0,STARLINK-3770,PAYLOAD,2024-02-18 00:13:03,15.08861859,0.000129,53.2158,264.0595,87.4774,272.6365,0.001081,0.00016968,0.0,0 STARLINK-3770,1 52554U 22051X   24049.00907144  .00016968  00000-0  10810-2 0  9997,2 52554  53.2158 264.0595 0001290  87.4774 272.6365 15.08861859 98040,6917.814,95.436,540.571,538.786,0.0
52554.0,STARLINK-3770,PAYLOAD,2024-02-18 19:17:40,15.08861632,0.0001309,53.2155,260.49,87.1903,272.9239,0.00047693,7.315e-05,0.0,0 STARLINK-3770,1 52554U 22051X   24049.80394403  .00007315  00000-0  47693-3 0  9999,2 52554  53.2155 260.4900 0001309  87.1903 272.9239 15.08861632 98232,6917.814,95.436,540.585,538.774,0.0
52554.0,STARLINK-3770,PAYLOAD,2024-02-18 20:53:03,15.08862841,0.0001294,53.2157,260.1926,86.0137,274.1004,0.00049435,7.593e-05,0.0,0 STARLINK-3770,1 52554U 22051X   24049.87018287  .00007593  00000-0  49435-3 0  9993,2 52554  53.2157 260.1926 0001294  86.0137 274.1004 15.08862841 98179,6917.811,95.436,540.571,538.78,0.0
52554.0,STARLINK-3770,PAYLOAD,2024-02-19 06:25:22,15.08857188,0.0001234,53.2148,258.4045,77.0441,283.0689,0.00019056,2.748e-05,0.0,0 STARLINK-3770,1 52554U 22051X   24050.26761904  .00002748  00000-0  19056-3 0  9992,2 52554  53.2148 258.4045 0001234  77.0441 283.0689 15.08857188 98304,6917.828,95.436,540.547,538.839,0.0
52554.0,STARLINK-3770,PAYLOAD,2024-02-19 14:22:18,15.08846045,0.0001344,53.2152,256.9212,94.1777,265.9369,-8.5763e-05,-1.653e-05,0.0,0 STARLINK-3770,1 52554U 22051X   24050.59882100 -.00001653  00000-0 -85763-4 0  9995,2 52554  53.2152 256.9212 0001344  94.1777 265.9369 15.08846045 98283,6917.862,95.437,540.657,538.797,0.0
52554.0,STARLINK-3770,PAYLOAD,2024-02-19 20:43:50,15.0884891,0.0001279,53.2149,255.7327,92.0356,268.0782,2.5999e-05,1.26e-06,0.0,0 STARLINK-3770,1 52554U 22051X   24050.86378016  .00000126  00000-0  25999-4 0  9998,2 52554  53.2149 255.7327 0001279  92.0356 268.0782 15.08848910 98398,6917.853,95.437,540.603,538.833,0.0
52554.0,STARLINK-3770,PAYLOAD,2024-02-20 12:37:41,15.08844916,0.0001237,53.2144,252.7599,94.6472,265.4661,3.6834e-05,2.98e-06,0.0,0 STARLINK-3770,1 52554U 22051X   24051.52617974  .00000298  00000-0  36834-4 0  9991,2 52554  53.2144 252.7599 0001237  94.6472 265.4661 15.08844916 98425,6917.865,95.437,540.586,538.875,0.0
52554.0,STARLINK-3770,PAYLOAD,2024-02-20 20:34:37,15.08846539,0.0001248,53.2146,251.273,93.8189,266.2946,7.2286e-05,8.63e-06,0.0,0 STARLINK-3770,1 52554U 22051X   24051.85737838  .00000863  00000-0  72286-4 0  9998,2 52554  53.2146 251.2730 0001248  93.8189 266.2946 15.08846539 98479,6917.86,95.437,540.589,538.862,0.0
52554.0,STARLINK-3770,PAYLOAD,2024-02-20 23:45:23,15.08850127,0.0001299,53.2142,250.6776,93.746,266.3681,0.00015352,2.157e-05,0.0,0 STARLINK-3770,1 52554U 22051X   24051.98985666  .00002157  00000-0  15352-3 0  9994,2 52554  53.2142 250.6776 0001299  93.7460 266.3681 15.08850127 98560,6917.849,95.437,540.613,538.816,0.0
52554.0,STARLINK-3770,PAYLOAD,2024-02-21 06:06:56,15.08843643,0.0001211,53.2136,249.4854,87.1857,272.9273,5.0396e-05,5.14e-06,0.0,0 STARLINK-3770,1 52554U 22051X   24052.25481801  .00000514  00000-0  50396-4 0  9990,2 52554  53.2136 249.4854 0001211  87.1857 272.9273 15.08843643 98607,6917.869,95.437,540.572,538.896,0.0
52554.0,STARLINK-3770,PAYLOAD,2024-02-21 20:25:24,15.08841476,0.0001274,53.2145,246.8128,95.6661,264.4476,7.8131e-05,9.56e-06,0.0,0 STARLINK-3770,1 52554U 22051X   24052.85098000  .00000956  00000-0  78131-4 0  9998,2 52554  53.2145 246.8128 0001274  95.6661 264.4476 15.08841476 98623,6917.876,95.437,540.622,538.86,0.0
52554.0,STARLINK-3770,PAYLOAD,2024-02-22 05:57:43,15.088431,0.0001243,53.2147,245.0257,86.2441,273.8693,5.0188e-05,5.11e-06,0.0,0 STARLINK-3770,1 52554U 22051X   24053.24841967  .00000511  00000-0  50188-4 0  9999,2 52554  53.2147 245.0257 0001243  86.2441 273.8693 15.08843100 98684,6917.871,95.437,540.596,538.876,0.0
52554.0,STARLINK-3770,PAYLOAD,2024-02-22 18:40:48,15.08844184,0.0001022,53.2142,242.6479,89.2637,270.8472,6.513e-05,7.49e-06,0.0,0 STARLINK-3770,1 52554U 22051X   24053.77833954  .00000749  00000-0  65130-4 0  9990,2 52554  53.2142 242.6479 0001022  89.2637 270.8472 15.08844184 98835,6917.868,95.437,540.44,539.026,0.0
